ICAO,Type,Name,LAT,LON,Elevation,Country,Region
AYPY,large_airport,Port Moresby Jacksons International Airport,-9.443380356,147.2200012,146,PG,PG-NCD
BIKF,large_airport,Keflavik International Airport,63.985001,-22.6056,171,IS,IS-2
BKPR,large_airport,PriXXtina International Airport,42.5728,21.035801,1789,XK,XK-01
CYEG,large_airport,Edmonton International Airport,53.30970001,-113.5800018,2373,CA,CA-AB
CYHZ,large_airport,Halifax / Stanfield International Airport,44.88079834,-63.50859833,477,CA,CA-NS
CYOW,large_airport,Ottawa Macdonald-Cartier International Airport,45.32249832,-75.66919708,374,CA,CA-ON
CYUL,large_airport,Montreal / Pierre Elliott Trudeau International Airport,45.47060013,-73.74079895,118,CA,CA-QC
CYVR,large_airport,Vancouver International Airport,49.19390106,-123.1839981,14,CA,CA-BC
CYWG,large_airport,Winnipeg / James Armstrong Richardson International Airport,49.90999985,-97.23989868,783,CA,CA-MB
CYYC,large_airport,Calgary International Airport,51.11389923,-114.0199966,3557,CA,CA-AB
CYYJ,large_airport,Victoria International Airport,48.64690018,-123.4260025,63,CA,CA-BC
CYYT,large_airport,St. John's International Airport,47.61859894,-52.75189972,461,CA,CA-NL
CYYZ,large_airport,Lester B. Pearson International Airport,43.67720032,-79.63059998,569,CA,CA-ON
DAAG,large_airport,Houari Boumediene Airport,36.691002,3.21541,82,DZ,DZ-16
DFFD,large_airport,Ouagadougou Airport,12.3532,-1.51242,1037,BF,BF-KAD
DGAA,large_airport,Kotoka International Airport,5.6051898,-0.1667860001,205,GH,GH-AA
DNAA,large_airport,Nnamdi Azikiwe International Airport,9.006790161,7.263169765,1123,NG,NG-FC
DNAI,large_airport,Akwa Ibom International Airport,4.8725,8.093,170,NG,NG-AK
DNKN,large_airport,Mallam Aminu International Airport,12.0476,8.52462,1562,NG,NG-KN
DNMM,large_airport,Murtala Muhammed International Airport,6.577370167,3.321160078,135,NG,NG-LA
DRRN,large_airport,Diori Hamani International Airport,13.4815,2.18361,732,NE,NE-8
DTTA,large_airport,Tunis Carthage International Airport,36.85100174,10.22719955,22,TN,TN-11
EBBR,large_airport,Brussels Airport,50.90140152,4.48443985,184,BE,BE-BRU
EBCI,large_airport,Brussels South Charleroi Airport,50.459202,4.45382,614,BE,BE-WHT
EBLG,large_airport,LiXXge Airport,50.63740158,5.443220139,659,BE,BE-WLG
EDDB,large_airport,Berlin Brandenburg Airport,52.351389,13.493889,157,DE,DE-BR
EDDC,large_airport,Dresden Airport,51.13280106,13.76720047,755,DE,DE-SN
EDDF,large_airport,Frankfurt am Main Airport,50.033333,8.570556,364,DE,DE-HE
EDDG,large_airport,MXXnster OsnabrXXck Airport,52.13460159,7.684830189,160,DE,DE-NW
EDDH,large_airport,Hamburg Airport,53.63040161,9.988229752,53,DE,DE-HH
EDDK,large_airport,Cologne Bonn Airport,50.86589813,7.142739773,302,DE,DE-NW
EDDL,large_airport,DXXsseldorf Airport,51.289501,6.76678,147,DE,DE-NW
EDDM,large_airport,Munich Airport,48.353802,11.7861,1487,DE,DE-BY
EDDN,large_airport,Nuremberg Airport,49.498699,11.078056,1046,DE,DE-BY
EDDP,large_airport,Leipzig/Halle Airport,51.423889,12.236389,465,DE,DE-SN
EDDS,large_airport,Stuttgart Airport,48.68989944,9.221960068,1276,DE,DE-BW
EDDV,large_airport,Hannover Airport,52.46110153,9.685079575,183,DE,DE-NI
EDDW,large_airport,Bremen Airport,53.04750061,8.786669731,14,DE,DE-HB
EDLW,large_airport,Dortmund Airport,51.5182991,7.612239838,425,DE,DE-NW
EDSB,large_airport,Karlsruhe Baden-Baden Airport,48.77939987,8.080499649,408,DE,DE-BW
EETN,large_airport,Lennart Meri Tallinn Airport,59.41329956,24.83279991,131,EE,EE-37
EFHK,large_airport,Helsinki Vantaa Airport,60.3172,24.963301,179,FI,FI-18
EGAA,large_airport,Belfast International Airport,54.65750122,-6.215829849,268,GB,GB-NIR
EGAC,large_airport,George Best Belfast City Airport,54.61809921,-5.872499943,15,GB,GB-NIR
EGBB,large_airport,Birmingham International Airport,52.45389938,-1.748029947,327,GB,GB-ENG
EGCC,large_airport,Manchester Airport,53.35369873,-2.274950027,257,GB,GB-ENG
EGCN,large_airport,Robin Hood Doncaster Sheffield Airport,53.48053781,-1.010656357,55,GB,GB-ENG
EGFF,large_airport,Cardiff International Airport,51.39670181,-3.343329906,220,GB,GB-WLS
EGGD,large_airport,Bristol Airport,51.382702,-2.71909,622,GB,GB-ENG
EGGP,large_airport,Liverpool John Lennon Airport,53.33359909,-2.849720001,80,GB,GB-ENG
EGGW,large_airport,London Luton Airport,51.87469864,-0.3683330119,526,GB,GB-ENG
EGHH,large_airport,Bournemouth Airport,50.77999878,-1.842499971,38,GB,GB-ENG
EGHI,large_airport,Southampton Airport,50.95029831,-1.35679996,44,GB,GB-ENG
EGKK,large_airport,London Gatwick Airport,51.148102,-0.190278,202,GB,GB-ENG
EGLL,large_airport,London Heathrow Airport,51.4706,-0.461941,83,GB,GB-ENG
EGNM,large_airport,Leeds Bradford Airport,53.86589813,-1.660570025,681,GB,GB-ENG
EGNT,large_airport,Newcastle Airport,55.03749847,-1.691669941,266,GB,GB-ENG
EGNX,large_airport,East Midlands Airport,52.83110046,-1.328060031,306,GB,GB-ENG
EGPD,large_airport,Aberdeen Dyce Airport,57.20190048,-2.197779894,215,GB,GB-SCT
EGPF,large_airport,Glasgow International Airport,55.871899,-4.43306,26,GB,GB-SCT
EGPH,large_airport,Edinburgh Airport,55.95000076,-3.372499943,135,GB,GB-SCT
EGSH,large_airport,Norwich International Airport,52.67580032,1.282780051,117,GB,GB-ENG
EGSS,large_airport,London Stansted Airport,51.88499832,0.2349999994,348,GB,GB-ENG
EGTE,large_airport,Exeter International Airport,50.7344017,-3.413889885,102,GB,GB-ENG
EGUL,large_airport,RAF Lakenheath,52.40930176,0.5609999895,32,GB,GB-ENG
EGUN,large_airport,RAF Mildenhall,52.36190033,0.4864059985,33,GB,GB-ENG
EGVA,large_airport,RAF Fairford,51.68220139,-1.790030003,286,GB,GB-ENG
EGVN,large_airport,RAF Brize Norton,51.75,-1.58362,288,GB,GB-ENG
EHAM,large_airport,Amsterdam Airport Schiphol,52.308601,4.76389,-11,NL,NL-NH
EHEH,large_airport,Eindhoven Airport,51.45009995,5.374529839,74,NL,NL-NB
EICK,large_airport,Cork Airport,51.84130096,-8.491109848,502,IE,IE-C
EIDW,large_airport,Dublin Airport,53.421299,-6.27007,242,IE,IE-D
EINN,large_airport,Shannon Airport,52.702,-8.92482,46,IE,IE-CE
EKBI,large_airport,Billund Airport,55.74029922,9.151780128,247,DK,DK-83
EKCH,large_airport,Copenhagen Kastrup Airport,55.61790085,12.65600014,17,DK,DK-84
EKYT,large_airport,Aalborg Airport,57.09275891,9.849243164,10,DK,DK-81
ELLX,large_airport,Luxembourg-Findel International Airport,49.6233333,6.2044444,1234,LU,LU-L
ENBO,large_airport,BodXX Airport,67.26920319,14.36530018,42,NO,NO-18
ENBR,large_airport,Bergen Airport Flesland,60.29339981,5.218140125,170,NO,NO-12
ENGM,large_airport,Oslo Gardermoen Airport,60.19390106,11.10039997,681,NO,NO-02
ENTC,large_airport,TromsXX Airport,69.6832962,18.91889954,31,NO,NO-19
ENVA,large_airport,Trondheim Airport VXXrnes,63.4578018,10.9239998,56,NO,NO-17
ENZV,large_airport,Stavanger Airport Sola,58.87670135,5.63778019,29,NO,NO-11
EPGD,large_airport,GdaXXsk Lech WaXXXXsa Airport,54.37760162,18.46619987,489,PL,PL-PM
EPKK,large_airport,KrakXXw John Paul II International Airport,50.077702,19.7848,791,PL,PL-MA
EPKT,large_airport,Katowice International Airport,50.4743,19.08,995,PL,PL-SL
EPMO,large_airport,Modlin Airport,52.451099,20.6518,341,PL,PL-MZ
EPPO,large_airport,PoznaXX-XXawica Airport,52.42100143,16.82629967,308,PL,PL-WP
EPWA,large_airport,Warsaw Chopin Airport,52.16569901,20.96710014,362,PL,PL-MZ
EPWR,large_airport,Copernicus WrocXXaw Airport,51.10269928,16.88579941,404,PL,PL-DS
ESGG,large_airport,Gothenburg-Landvetter Airport,57.66279984,12.27980042,506,SE,SE-Q
ESMS,large_airport,MalmXX Sturup Airport,55.53630536,13.37619781,236,SE,SE-M
ESPA,large_airport,LuleXX Airport,65.54380035,22.12199974,65,SE,SE-BD
ESSA,large_airport,Stockholm-Arlanda Airport,59.65190125,17.91860008,137,SE,SE-AB
ETAR,large_airport,Ramstein Air Base,49.43690109,7.600279808,776,DE,DE-RP
EVRA,large_airport,Riga International Airport,56.92359924,23.97109985,36,LV,LV-RIX
EYVI,large_airport,Vilnius International Airport,54.634102,25.285801,648,LT,LT-VL
FACT,large_airport,Cape Town International Airport,-33.96480179,18.60169983,151,ZA,ZA-WC
FAGG,large_airport,George Airport,-34.0056,22.378902,648,ZA,ZA-WC
FALE,large_airport,King Shaka International Airport,-29.61444444,31.11972222,295,ZA,ZA-NL
FAOR,large_airport,OR Tambo International Airport,-26.1392,28.246,5558,ZA,ZA-GT
FBSK,large_airport,Sir Seretse Khama International Airport,-24.555201,25.9182,3299,BW,BW-SE
FDSK,large_airport,King Mswati III International Airport,-26.358611,31.716944,1092,SZ,SZ-LU
FIMP,large_airport,Sir Seewoosagur Ramgoolam International Airport,-20.430201,57.683601,186,MU,MU-GP
FLLS,large_airport,Kenneth Kaunda International Airport,-15.3308,28.4526,3779,ZM,ZM-09
FMMI,large_airport,Ivato Airport,-18.7969,47.478802,4198,MG,MG-T
FNLU,large_airport,Quatro de Fevereiro Airport,-8.85837,13.2312,243,AO,AO-LUA
FQMA,large_airport,Maputo Airport,-25.920799,32.572601,145,MZ,MZ-MPM
FSIA,large_airport,Seychelles International Airport,-4.67434,55.521801,10,SC,SC-20
FTTJ,large_airport,N'Djamena International Airport,12.1337,15.034,968,TD,TD-CB
FVHA,large_airport,Robert Gabriel Mugabe International Airport,-17.931801,31.0928,4887,ZW,ZW-HA
FYWH,large_airport,Hosea Kutako International Airport,-22.4799,17.4709,5640,NA,NA-KH
FZAA,large_airport,Ndjili International Airport,-4.38575,15.4446,1027,CD,CD-KN
GABS,large_airport,Modibo Keita International Airport,12.5335,-7.94994,1247,ML,ML-2
GCLA,large_airport,La Palma Airport,28.626499,-17.7556,107,ES,ES-CN
GCLP,large_airport,Gran Canaria Airport,27.93190002,-15.38659954,78,ES,ES-CN
GCTS,large_airport,Tenerife South Airport,28.04450035,-16.57250023,209,ES,ES-CN
GCXO,large_airport,Tenerife Norte Airport,28.48270035,-16.34149933,2076,ES,ES-CN
GFLL,large_airport,Lungi International Airport,8.61644,-13.1955,84,SL,SL-N
GLRB,large_airport,Roberts International Airport,6.23379,-10.3623,31,LR,LR-MG
GMMN,large_airport,Mohammed V International Airport,33.36750031,-7.589970112,656,MA,MA-CAS
GOBD,large_airport,Blaise Diagne International Airport,14.67,-17.073333,290,SN,SN-DK
GOOY,large_airport,LXXopold SXXdar Senghor International Airport,14.73970032,-17.49020004,85,SN,SN-DK
GQNO,large_airport,NouakchottXXXOumtounsy International Airport,18.31,-15.9697222,9,MR,MR-NKC
GVAC,large_airport,AmXXlcar Cabral International Airport,16.7414,-22.9494,177,CV,CV-B
HAAB,large_airport,Addis Ababa Bole International Airport,8.977890015,38.79930115,7630,ET,ET-AA
HCMH,large_airport,Egal International Airport,9.513207,44.082389,4471,SO,SO-WO
HECA,large_airport,Cairo International Airport,30.12190056,31.40559959,382,EG,EG-C
HEGN,large_airport,Hurghada International Airport,27.17830086,33.79940033,52,EG,EG-BA
HELX,large_airport,Luxor International Airport,25.671,32.7066,294,EG,EG-KN
HKJK,large_airport,Jomo Kenyatta International Airport,-1.319239974,36.92779922,5330,KE,KE-110
HKMO,large_airport,Mombasa Moi International Airport,-4.034830093,39.59420013,200,KE,KE-300
HLLT,large_airport,Tripoli International Airport,32.66350174,13.1590004,263,LY,LY-TB
HRYR,large_airport,Kigali International Airport,-1.96863,30.1395,4859,RW,RW-01
HSSJ,large_airport,Juba International Airport,4.872010231,31.60110092,1513,SS,SS-17
HSSS,large_airport,Khartoum International Airport,15.58950043,32.55319977,1265,SD,SD-03
HTDA,large_airport,Julius Nyerere International Airport,-6.87811,39.202599,182,TZ,TZ-02
HTZA,large_airport,Abeid Amani Karume International Airport,-6.22202,39.224899,54,TZ,TZ-07
HUEN,large_airport,Entebbe International Airport,0.042386,32.443501,3782,UG,UG-C
ID-0017,large_airport,Aji Pangeran Tumenggung Pranoto International Airport,-0.374448,117.249392,73,ID,ID-KI
KABQ,large_airport,Albuquerque International Sunport,35.040199,-106.609001,5355,US,US-NM
KADW,large_airport,Joint Base Andrews,38.810799,-76.866997,280,US,US-MD
KAFW,large_airport,Fort Worth Alliance Airport,32.98759842,-97.31880188,722,US,US-TX
KAGS,large_airport,Augusta Regional At Bush Field,33.36989975,-81.96450043,144,US,US-GA
KAMA,large_airport,Rick Husband Amarillo International Airport,35.219398,-101.706001,3607,US,US-TX
KATL,large_airport,Hartsfield Jackson Atlanta International Airport,33.6367,-84.428101,1026,US,US-GA
KAUS,large_airport,Austin Bergstrom International Airport,30.19449997,-97.66989899,542,US,US-TX
KAVL,large_airport,Asheville Regional Airport,35.436199,-82.541801,2165,US,US-NC
KBAB,large_airport,Beale Air Force Base,39.13610077,-121.4369965,113,US,US-CA
KBAD,large_airport,Barksdale Air Force Base,32.50180054,-93.66269684,166,US,US-LA
KBDL,large_airport,Bradley International Airport,41.93889999,-72.68319702,173,US,US-CT
KBFI,large_airport,Boeing Field King County International Airport,47.52999878,-122.302002,21,US,US-WA
KBGR,large_airport,Bangor International Airport,44.80739975,-68.82810211,192,US,US-ME
KBHM,large_airport,Birmingham-Shuttlesworth International Airport,33.56290054,-86.75350189,650,US,US-AL
KBIL,large_airport,Billings Logan International Airport,45.80770111,-108.5429993,3652,US,US-MT
KBLV,large_airport,Scott AFB/Midamerica Airport,38.5452,-89.835197,459,US,US-IL
KBMI,large_airport,Central Illinois Regional Airport at Bloomington-Normal,40.47710037,-88.91590118,871,US,US-IL
KBNA,large_airport,Nashville International Airport,36.12450027,-86.67819977,599,US,US-TN
KBOI,large_airport,Boise Air Terminal/Gowen Field,43.5644,-116.223,2871,US,US-ID
KBOS,large_airport,General Edward Lawrence Logan International Airport,42.36429977,-71.00520325,20,US,US-MA
KBUF,large_airport,Buffalo Niagara International Airport,42.94049835,-78.73220062,728,US,US-NY
KBWI,large_airport,Baltimore/Washington International Thurgood Marshall Airport,39.1754,-76.668297,146,US,US-MD
KCAE,large_airport,Columbia Metropolitan Airport,33.93880081,-81.11949921,236,US,US-SC
KCBM,large_airport,Columbus Air Force Base,33.64379883,-88.44380188,219,US,US-MS
KCHA,large_airport,Lovell Field,35.03530121,-85.20379639,683,US,US-TN
KCHS,large_airport,Charleston Air Force Base-International Airport,32.89860153,-80.04049683,46,US,US-SC
KCID,large_airport,The Eastern Iowa Airport,41.88470078,-91.71080017,869,US,US-IA
KCLE,large_airport,Cleveland Hopkins International Airport,41.4117012,-81.84980011,791,US,US-OH
KCLT,large_airport,Charlotte Douglas International Airport,35.2140007,-80.94309998,748,US,US-NC
KCMH,large_airport,John Glenn Columbus International Airport,39.998001,-82.891899,815,US,US-OH
KCOS,large_airport,City of Colorado Springs Municipal Airport,38.805801,-104.700996,6187,US,US-CO
KCRP,large_airport,Corpus Christi International Airport,27.77039909,-97.50119781,44,US,US-TX
KCRW,large_airport,Yeager Airport,38.37310028,-81.59320068,981,US,US-WV
KCVG,large_airport,Cincinnati Northern Kentucky International Airport,39.048801,-84.667801,896,US,US-KY
KCVS,large_airport,Cannon Air Force Base,34.38280106,-103.3219986,4295,US,US-NM
KDAB,large_airport,Daytona Beach International Airport,29.179899,-81.058098,34,US,US-FL
KDAL,large_airport,Dallas Love Field,32.847099,-96.851799,487,US,US-TX
KDAY,large_airport,James M Cox Dayton International Airport,39.90240097,-84.2193985,1009,US,US-OH
KDBQ,large_airport,Dubuque Regional Airport,42.40200043,-90.70950317,1077,US,US-IA
KDCA,large_airport,Ronald Reagan Washington National Airport,38.8521,-77.037697,15,US,US-DC
KDEN,large_airport,Denver International Airport,39.86169815,-104.6729965,5431,US,US-CO
KDFW,large_airport,Dallas Fort Worth International Airport,32.896801,-97.038002,607,US,US-TX
KDLF,large_airport,Laughlin Air Force Base,29.359501,-100.778002,1082,US,US-TX
KDLH,large_airport,Duluth International Airport,46.84209824,-92.19360352,1428,US,US-MN
KDOV,large_airport,Dover Air Force Base,39.12950134,-75.46600342,24,US,US-DE
KDSM,large_airport,Des Moines International Airport,41.5340004,-93.6631012,958,US,US-IA
KDTW,large_airport,Detroit Metropolitan Wayne County Airport,42.21239853,-83.35340118,645,US,US-MI
KDYS,large_airport,Dyess Air Force Base,32.42079926,-99.854599,1789,US,US-TX
KEDW,large_airport,Edwards Air Force Base,34.905399,-117.884003,2312,US,US-CA
KEND,large_airport,Vance Air Force Base,36.33919907,-97.91649628,1307,US,US-OK
KERI,large_airport,Erie International Tom Ridge Field,42.08312701,-80.17386675,732,US,US-PA
KEWR,large_airport,Newark Liberty International Airport,40.69250107,-74.16870117,18,US,US-NJ
KFFO,large_airport,Wright-Patterson Air Force Base,39.8260994,-84.0483017,823,US,US-OH
KFLL,large_airport,Fort Lauderdale Hollywood International Airport,26.072599,-80.152702,9,US,US-FL
KFSM,large_airport,Fort Smith Regional Airport,35.33660126,-94.36740112,469,US,US-AR
KFTW,large_airport,Fort Worth Meacham International Airport,32.819801,-97.362396,710,US,US-TX
KFWA,large_airport,Fort Wayne International Airport,40.97850037,-85.19509888,814,US,US-IN
KGEG,large_airport,Spokane International Airport,47.61989975,-117.5339966,2376,US,US-WA
KGPT,large_airport,Gulfport Biloxi International Airport,30.40730095,-89.07009888,28,US,US-MS
KGRB,large_airport,Austin Straubel International Airport,44.48509979,-88.12960052,695,US,US-WI
KGSB,large_airport,Seymour Johnson Air Force Base,35.33940125,-77.96060181,109,US,US-NC
KGSO,large_airport,Piedmont Triad International Airport,36.09780121,-79.93730164,925,US,US-NC
KGSP,large_airport,Greenville Spartanburg International Airport,34.89569855,-82.21890259,964,US,US-SC
KGUS,large_airport,Grissom Air Reserve Base,40.64810181,-86.15209961,812,US,US-IN
KHIB,large_airport,Range Regional Airport,47.38660049,-92.83899689,1354,US,US-MN
KHMN,large_airport,Holloman Air Force Base,32.85250092,-106.1070023,4093,US,US-NM
KHOU,large_airport,William P Hobby Airport,29.64539909,-95.27890015,46,US,US-TX
KHSV,large_airport,Huntsville International Carl T Jones Field,34.6371994,-86.77510071,629,US,US-AL
KHTS,large_airport,Tri-State/Milton J. Ferguson Field,38.36669922,-82.55799866,828,US,US-WV
KIAD,large_airport,Washington Dulles International Airport,38.9445,-77.455803,312,US,US-VA
KIAH,large_airport,George Bush Intercontinental Houston Airport,29.9843998,-95.34140015,97,US,US-TX
KICT,large_airport,Wichita Eisenhower National Airport,37.649899,-97.433098,1333,US,US-KS
KIND,large_airport,Indianapolis International Airport,39.7173,-86.294403,797,US,US-IN
KJAN,large_airport,Jackson-Medgar Wiley Evers International Airport,32.31119919,-90.07589722,346,US,US-MS
KJAX,large_airport,Jacksonville International Airport,30.49410057,-81.68789673,30,US,US-FL
KJFK,large_airport,John F Kennedy International Airport,40.639801,-73.7789,13,US,US-NY
KJLN,large_airport,Joplin Regional Airport,37.15179825,-94.49829865,981,US,US-MO
KLAS,large_airport,McCarran International Airport,36.08010101,-115.1520004,2181,US,US-NV
KLAX,large_airport,Los Angeles International Airport,33.942501,-118.407997,125,US,US-CA
KLBB,large_airport,Lubbock Preston Smith International Airport,33.663601,-101.822998,3282,US,US-TX
KLCK,large_airport,Rickenbacker International Airport,39.813801,-82.927803,744,US,US-OH
KLEX,large_airport,Blue Grass Airport,38.03649902,-84.60590363,979,US,US-KY
KLFI,large_airport,Langley Air Force Base,37.082901,-76.36049652,11,US,US-VA
KLFT,large_airport,Lafayette Regional Airport,30.20529938,-91.98760223,42,US,US-LA
KLGA,large_airport,La Guardia Airport,40.777199,-73.872597,21,US,US-NY
KLIT,large_airport,Bill & Hillary Clinton National Airport/Adams Field,34.72940063,-92.22429657,262,US,US-AR
KLTS,large_airport,Altus Air Force Base,34.667099,-99.26670074,1382,US,US-OK
KLUF,large_airport,Luke Air Force Base,33.53499985,-112.3830032,1085,US,US-AZ
KMBS,large_airport,MBS International Airport,43.53290176,-84.07959747,668,US,US-MI
KMCF,large_airport,Mac Dill Air Force Base,27.84930038,-82.52120209,14,US,US-FL
KMCI,large_airport,Kansas City International Airport,39.2976,-94.713898,1026,US,US-MO
KMCO,large_airport,Orlando International Airport,28.42939949,-81.30899811,96,US,US-FL
KMDW,large_airport,Chicago Midway International Airport,41.785999,-87.752403,620,US,US-IL
KMEM,large_airport,Memphis International Airport,35.04240036,-89.97669983,341,US,US-TN
KMGE,large_airport,Dobbins Air Reserve Base,33.91540146,-84.51629639,1068,US,US-GA
KMGM,large_airport,Montgomery Regional (Dannelly Field) Airport,32.30059814,-86.39399719,221,US,US-AL
KMHT,large_airport,Manchester-Boston Regional Airport,42.932598,-71.435699,266,US,US-NH
KMIA,large_airport,Miami International Airport,25.79319954,-80.29060364,8,US,US-FL
KMKE,large_airport,General Mitchell International Airport,42.94720078,-87.89659882,723,US,US-WI
KMLI,large_airport,Quad City International Airport,41.44850159,-90.50749969,590,US,US-IL
KMLU,large_airport,Monroe Regional Airport,32.51089859,-92.03769684,79,US,US-LA
KMOB,large_airport,Mobile Regional Airport,30.69120026,-88.24279785,219,US,US-AL
KMSN,large_airport,Dane County Regional Truax Field,43.13990021,-89.33750153,887,US,US-WI
KMSP,large_airport,Minneapolis-St Paul International/Wold-Chamberlain Airport,44.882,-93.221802,841,US,US-MN
KMSY,large_airport,Louis Armstrong New Orleans International Airport,29.99340057,-90.25800323,4,US,US-LA
KMUO,large_airport,Mountain Home Air Force Base,43.043598,-115.872002,2996,US,US-ID
KOAK,large_airport,Metropolitan Oakland International Airport,37.721298,-122.221001,9,US,US-CA
KOKC,large_airport,Will Rogers World Airport,35.39310074,-97.60070038,1295,US,US-OK
KOMA,large_airport,Eppley Airfield,41.3032,-95.894096,984,US,US-NE
KONT,large_airport,Ontario International Airport,34.05599976,-117.6009979,944,US,US-CA
KORD,large_airport,Chicago O'Hare International Airport,41.9786,-87.9048,672,US,US-IL
KORF,large_airport,Norfolk International Airport,36.89459991,-76.20120239,26,US,US-VA
KPAM,large_airport,Tyndall Air Force Base,30.06959915,-85.57540131,17,US,US-FL
KPBI,large_airport,Palm Beach International Airport,26.68320084,-80.09559631,19,US,US-FL
KPDX,large_airport,Portland International Airport,45.58869934,-122.5979996,31,US,US-OR
KPHF,large_airport,Newport News Williamsburg International Airport,37.13190079,-76.49299622,42,US,US-VA
KPHL,large_airport,Philadelphia International Airport,39.87189865,-75.2410965,36,US,US-PA
KPHX,large_airport,Phoenix Sky Harbor International Airport,33.43429947,-112.012001,1135,US,US-AZ
KPIA,large_airport,General Wayne A. Downing Peoria International Airport,40.66419983,-89.69329834,660,US,US-IL
KPIT,large_airport,Pittsburgh International Airport,40.49150085,-80.23290253,1203,US,US-PA
KPVD,large_airport,Theodore Francis Green State Airport,41.732601,-71.420403,55,US,US-RI
KPWM,large_airport,Portland International Jetport,43.646198,-70.309303,76,US,US-ME
KRDU,large_airport,Raleigh Durham International Airport,35.87760162,-78.78749847,435,US,US-NC
KRFD,large_airport,Chicago Rockford International Airport,42.19540024,-89.09719849,742,US,US-IL
KRIC,large_airport,Richmond International Airport,37.50519943,-77.31970215,167,US,US-VA
KRND,large_airport,Randolph Air Force Base,29.52969933,-98.27890015,761,US,US-TX
KRNO,large_airport,Reno Tahoe International Airport,39.49909973,-119.7679977,4415,US,US-NV
KROA,large_airport,RoanokeXXXBlacksburg Regional Airport,37.3255,-79.975403,1175,US,US-VA
KROC,large_airport,Greater Rochester International Airport,43.1189003,-77.67240143,559,US,US-NY
KRST,large_airport,Rochester International Airport,43.90829849,-92.5,1317,US,US-MN
KRSW,large_airport,Southwest Florida International Airport,26.53619957,-81.75520325,30,US,US-FL
KSAN,large_airport,San Diego International Airport,32.73360062,-117.1900024,17,US,US-CA
KSAT,large_airport,San Antonio International Airport,29.533701,-98.469803,809,US,US-TX
KSAV,large_airport,Savannah Hilton Head International Airport,32.12760162,-81.20210266,50,US,US-GA
KSBN,large_airport,South Bend Regional Airport,41.70869827,-86.31729889,799,US,US-IN
KSDF,large_airport,Louisville Muhammad Ali International Airport,38.1744,-85.736,501,US,US-KY
KSEA,large_airport,Seattle Tacoma International Airport,47.449001,-122.308998,433,US,US-WA
KSFB,large_airport,Orlando Sanford International Airport,28.77759933,-81.23750305,55,US,US-FL
KSFO,large_airport,San Francisco International Airport,37.61899948,-122.375,13,US,US-CA
KSGF,large_airport,Springfield Branson National Airport,37.24570084,-93.38860321,1268,US,US-MO
KSJC,large_airport,Norman Y. Mineta San Jose International Airport,37.362598,-121.929001,62,US,US-CA
KSKA,large_airport,Fairchild Air Force Base,47.61510086,-117.6559982,2461,US,US-WA
KSLC,large_airport,Salt Lake City International Airport,40.78839874,-111.9779968,4227,US,US-UT
KSMF,large_airport,Sacramento International Airport,38.69540024,-121.5910034,27,US,US-CA
KSNA,large_airport,John Wayne Airport-Orange County Airport,33.67570114,-117.8679962,56,US,US-CA
KSPI,large_airport,Abraham Lincoln Capital Airport,39.84410095,-89.67790222,598,US,US-IL
KSPS,large_airport,Sheppard Air Force Base-Wichita Falls Municipal Airport,33.9888,-98.491898,1019,US,US-TX
KSRQ,large_airport,Sarasota Bradenton International Airport,27.39539909,-82.55439758,30,US,US-FL
KSSC,large_airport,Shaw Air Force Base,33.97269821,-80.47059631,241,US,US-SC
KSTL,large_airport,St Louis Lambert International Airport,38.748697,-90.370003,618,US,US-MO
KSUS,large_airport,Spirit of St Louis Airport,38.66210175,-90.65200043,463,US,US-MO
KSUU,large_airport,Travis Air Force Base,38.26269913,-121.927002,62,US,US-CA
KSUX,large_airport,Sioux Gateway Airport/Brigadier General Bud Day Field,42.402599,-96.384399,1098,US,US-IA
KSYR,large_airport,Syracuse Hancock International Airport,43.11119843,-76.10630035,421,US,US-NY
KSZL,large_airport,Whiteman Air Force Base,38.7303009,-93.54789734,870,US,US-MO
KTCM,large_airport,McChord Air Force Base,47.13769913,-122.4759979,322,US,US-WA
KTIK,large_airport,Tinker Air Force Base,35.41469955,-97.38659668,1291,US,US-OK
KTLH,large_airport,Tallahassee Regional Airport,30.39649963,-84.35030365,81,US,US-FL
KTOL,large_airport,Toledo Express Airport,41.58679962,-83.80780029,683,US,US-OH
KTPA,large_airport,Tampa International Airport,27.97550011,-82.53320313,26,US,US-FL
KTRI,large_airport,Tri-Cities Regional TN/VA Airport,36.475201,-82.407401,1519,US,US-TN
KTUL,large_airport,Tulsa International Airport,36.19839859,-95.88809967,677,US,US-OK
KTUS,large_airport,Tucson International Airport / Morris Air National Guard Base,32.115004,-110.938053,2643,US,US-AZ
KTYS,large_airport,McGhee Tyson Airport,35.81100082,-83.9940033,981,US,US-TN
KVBG,large_airport,Vandenberg Air Force Base,34.73730087,-120.5839996,369,US,US-CA
KVPS,large_airport,Destin-Ft Walton Beach Airport,30.4832,-86.525398,87,US,US-FL
KWRB,large_airport,Robins Air Force Base,32.64009857,-83.59190369,294,US,US-GA
LATI,large_airport,Tirana International Airport Mother Teresa,41.41469955,19.72060013,126,AL,AL-11
LBBG,large_airport,Burgas Airport,42.56959915,27.51519966,135,BG,BG-02
LBSF,large_airport,Sofia Airport,42.69669342,23.41143608,1742,BG,BG-23
LBWN,large_airport,Varna Airport,43.232101,27.8251,230,BG,BG-03
LCLK,large_airport,Larnaca International Airport,34.87509918,33.62490082,8,CY,CY-04
LCPH,large_airport,Paphos International Airport,34.7179985,32.4856987,41,CY,CY-06
LCRA,large_airport,RAF Akrotiri,34.590401,32.9879,76,GB,GB-U-A
LDZA,large_airport,Zagreb Airport,45.74290085,16.06879997,353,HR,HR-21
LEAL,large_airport,Alicante International Airport,38.28219986,-0.5581560135,142,ES,ES-V
LEBL,large_airport,Barcelona International Airport,41.2971,2.07846,12,ES,ES-CT
LEMD,large_airport,Adolfo SuXXrez MadridXXXBarajas Airport,40.471926,-3.56264,1998,ES,ES-M
LEMG,large_airport,MXXlaga Airport,36.67490005,-4.499110222,53,ES,ES-AN
LEPA,large_airport,Palma De Mallorca Airport,39.55170059,2.738810062,27,ES,ES-PM
LEST,large_airport,Santiago de Compostela Airport,42.89630127,-8.415140152,1213,ES,ES-GA
LFBD,large_airport,Bordeaux-MXXrignac Airport,44.8283,-0.715556,162,FR,FR-NAQ
LFBO,large_airport,Toulouse-Blagnac Airport,43.629101,1.36382,499,FR,FR-OCC
LFLL,large_airport,Lyon Saint-ExupXXry Airport,45.725556,5.081111,821,FR,FR-ARA
LFML,large_airport,Marseille Provence Airport,43.43927192,5.221424103,74,FR,FR-PAC
LFMN,large_airport,Nice-CXXte d'Azur Airport,43.65840149,7.215869904,12,FR,FR-PAC
LFOA,large_airport,Avord (BA 702) Air Base,47.053299,2.6325,580,FR,FR-CVL
LFPG,large_airport,Charles de Gaulle International Airport,49.012798,2.55,392,FR,FR-IDF
LFPO,large_airport,Paris-Orly Airport,48.7233333,2.3794444,291,FR,FR-IDF
LFSB,large_airport,EuroAirport Basel-Mulhouse-Freiburg Airport,47.59,7.529167,885,FR,FR-GES
LGAV,large_airport,Eleftherios Venizelos International Airport,37.93640137,23.94449997,308,GR,GR-A1
LGIR,large_airport,Heraklion International Nikos Kazantzakis Airport,35.33969879,25.18029976,115,GR,GR-91
LGTS,large_airport,Thessaloniki Macedonia International Airport,40.5196991,22.97089958,22,GR,GR-54
LHBP,large_airport,Budapest Liszt Ferenc International Airport,47.42976,19.261093,495,HU,HU-PE
LIBD,large_airport,Bari Karol WojtyXXa Airport,41.138901,16.760599,177,IT,IT-75
LICC,large_airport,Catania-Fontanarossa Airport,37.466801,15.0664,39,IT,IT-82
LICJ,large_airport,FalconeXXXBorsellino Airport,38.175999,13.091,65,IT,IT-82
LIEE,large_airport,Cagliari Elmas Airport,39.251499,9.05428,13,IT,IT-88
LIMC,large_airport,Malpensa International Airport,45.6306,8.72811,768,IT,IT-25
LIME,large_airport,Milan Bergamo Airport,45.673901,9.70417,782,IT,IT-25
LIMF,large_airport,Turin Airport,45.200802,7.64963,989,IT,IT-21
LIMJ,large_airport,Genoa Cristoforo Colombo Airport,44.4133,8.8375,13,IT,IT-42
LIML,large_airport,Milano Linate Airport,45.445099,9.27674,353,IT,IT-25
LIPE,large_airport,Bologna Guglielmo Marconi Airport,44.5354,11.2887,123,IT,IT-45
LIPH,large_airport,Treviso-Sant'Angelo Airport,45.648399,12.1944,59,IT,IT-34
LIPX,large_airport,Verona Villafranca Airport,45.395699,10.8885,239,IT,IT-34
LIPZ,large_airport,Venice Marco Polo Airport,45.505299,12.3519,7,IT,IT-34
LIRA,large_airport,CiampinoXXXG. B. Pastine International Airport,41.7994,12.5949,427,IT,IT-62
LIRF,large_airport,Leonardo da VinciXXXFiumicino Airport,41.8002778,12.2388889,13,IT,IT-62
LIRN,large_airport,Naples International Airport,40.886002,14.2908,294,IT,IT-72
LIRP,large_airport,Pisa International Airport,43.683899,10.3927,6,IT,IT-52
LJLJ,large_airport,Ljubljana JoXXe PuXXnik Airport,46.223701,14.4576,1273,SI,SI-061
LKPR,large_airport,VXXclav Havel Airport Prague,50.1008,14.26,1247,CZ,CZ-PR
LLBG,large_airport,Ben Gurion International Airport,32.01139832,34.88669968,135,IL,IL-M
LLER,large_airport,Ramon Airport,29.723694,35.011416,288,IL,IL-D
LMML,large_airport,Malta International Airport,35.857498,14.4775,300,MT,MT-25
LOWW,large_airport,Vienna International Airport,48.11029816,16.56970024,600,AT,AT-9
LPFR,large_airport,Faro Airport,37.01440048,-7.965909958,24,PT,PT-08
LPLA,large_airport,Lajes Airport,38.761799,-27.090799,180,PT,PT-20
LPPD,large_airport,JoXXo Paulo II Airport,37.74119949,-25.69790077,259,PT,PT-20
LPPR,large_airport,Francisco de SXX Carneiro Airport,41.24810028,-8.681389809,228,PT,PT-13
LPPT,large_airport,Humberto Delgado Airport (Lisbon Portela Airport),38.7813,-9.13592,374,PT,PT-11
LQSA,large_airport,Sarajevo International Airport,43.82460022,18.3314991,1708,BA,BA-BIH
LROP,large_airport,Henri CoandXX International Airport,44.5711111,26.085,314,RO,RO-B
LSGG,large_airport,Geneva Cointrin International Airport,46.23809814,6.108950138,1411,CH,CH-GE
LSZH,large_airport,ZXXrich Airport,47.464699,8.54917,1416,CH,CH-ZH
LTAC,large_airport,EsenboXXa International Airport,40.12810135,32.99509811,3125,TR,TR-06
LTAF,large_airport,Adana Airport,36.982201,35.280399,65,TR,TR-01
LTAI,large_airport,Antalya International Airport,36.898701,30.800501,177,TR,TR-07
LTAJ,large_airport,Gaziantep International Airport,36.94720078,37.47869873,2315,TR,TR-27
LTBJ,large_airport,Adnan Menderes International Airport,38.29240036,27.15699959,412,TR,TR-35
LTBS,large_airport,Dalaman International Airport,36.71310043,28.79249954,20,TR,TR-48
LTCE,large_airport,Erzurum International Airport,39.95650101,41.17020035,5763,TR,TR-25
LTCG,large_airport,Trabzon International Airport,40.99509811,39.78969955,104,TR,TR-61
LTFC,large_airport,SXXleyman Demirel International Airport,37.85540009,30.36840057,2835,TR,TR-32
LTFE,large_airport,Milas Bodrum International Airport,37.25059891,27.66430092,21,TR,TR-48
LTFJ,large_airport,Istanbul Sabiha GXXkXXen International Airport,40.898602,29.3092,312,TR,TR-34
LTFM,large_airport,Istanbul Airport,41.261297,28.741951,325,TR,TR-34
LWSK,large_airport,Skopje International Airport,41.961601,21.621401,781,MK,MK-004
LYBE,large_airport,Belgrade Nikola Tesla Airport,44.81840134,20.3090992,335,RS,RS-00
LYPG,large_airport,Podgorica Airport,42.359402,19.2519,141,ME,ME-16
LZIB,large_airport,M. R. XXtefXXnik Airport,48.17020035,17.21269989,436,SK,SK-BL
MDPC,large_airport,Punta Cana International Airport,18.56739998,-68.36340332,47,DO,DO-11
MDSD,large_airport,Las AmXXricas International Airport,18.42970085,-69.66889954,59,DO,DO-01
MGGT,large_airport,La Aurora Airport,14.5833,-90.527496,4952,GT,GT-GU
MKJP,large_airport,Norman Manley International Airport,17.93569946,-76.78749847,10,JM,JM-01
MMAA,large_airport,General Juan N Alvarez International Airport,16.75709915,-99.7539978,16,MX,MX-GRO
MMGL,large_airport,Don Miguel Hidalgo Y Costilla International Airport,20.52179909,-103.310997,5016,MX,MX-JAL
MMHO,large_airport,General Ignacio P. Garcia International Airport,29.09589958,-111.0479965,627,MX,MX-SON
MMMX,large_airport,Licenciado Benito Juarez International Airport,19.4363,-99.072098,7316,MX,MX-DIF
MMMY,large_airport,General Mariano Escobedo International Airport,25.7784996,-100.1070023,1278,MX,MX-NLE
MMPR,large_airport,Licenciado Gustavo DXXaz Ordaz International Airport,20.68009949,-105.2539978,23,MX,MX-JAL
MMSD,large_airport,Los Cabos International Airport,23.15180016,-109.7210007,374,MX,MX-BCS
MMSM,large_airport,Felipe Angeles International Airport,19.745782,-99.01454,7369,MX,MX-MEX
MMTJ,large_airport,General Abelardo L. RodrXXguez International Airport,32.54109955,-116.9700012,489,MX,MX-BCN
MMUN,large_airport,CancXXn International Airport,21.03650093,-86.87709808,22,MX,MX-ROO
MPTO,large_airport,Tocumen International Airport,9.071359634,-79.38349915,135,PA,PA-8
MRLB,large_airport,Daniel Oduber Quiros International Airport,10.5933,-85.544403,270,CR,CR-G
MSLP,large_airport,MonseXXor XXscar Arnulfo Romero International Airport,13.4409,-89.055702,101,SV,SV-PA
MUHA,large_airport,JosXX MartXX International Airport,22.98920059,-82.40910339,210,CU,CU-03
MUVR,large_airport,Juan Gualberto Gomez International Airport,23.03440094,-81.43530273,210,CU,CU-04
MWCR,large_airport,Owen Roberts International Airport,19.2928009,-81.35769653,8,KY,KY-U-A
MYNN,large_airport,Lynden Pindling International Airport,25.039,-77.466202,16,BS,BS-NP
MZBZ,large_airport,Philip S. W. Goldson International Airport,17.53910065,-88.30819702,15,BZ,BZ-BZ
NCRG,large_airport,Rarotonga International Airport,-21.20269966,-159.8059998,19,CK,CK-U-A
NTAA,large_airport,Faa'a International Airport,-17.553699,-149.606995,5,PF,PF-U-A
NZAA,large_airport,Auckland International Airport,-37.0080986,174.7920074,23,NZ,NZ-AUK
NZCH,large_airport,Christchurch International Airport,-43.48939896,172.5319977,123,NZ,NZ-CAN
NZWN,large_airport,Wellington International Airport,-41.32720184,174.8049927,41,NZ,NZ-WGN
OBBI,large_airport,Bahrain International Airport,26.27079964,50.63359833,6,BH,BH-15
OEDF,large_airport,King Fahd International Airport,26.47120094,49.79790115,72,SA,SA-04
OEDR,large_airport,King Abdulaziz Air Base,26.26539993,50.15200043,84,SA,SA-04
OEJN,large_airport,King Abdulaziz International Airport,21.6796,39.156502,48,SA,SA-02
OEMA,large_airport,Prince Mohammad Bin Abdulaziz Airport,24.5534,39.705101,2151,SA,SA-03
OERK,large_airport,King Khaled International Airport,24.95759964,46.69879913,2049,SA,SA-01
OIIE,large_airport,Imam Khomeini International Airport,35.41609955,51.15219879,3305,IR,IR-07
OIII,large_airport,Mehrabad International Airport,35.68920135,51.31340027,3962,IR,IR-07
OIMM,large_airport,Mashhad International Airport,36.23519897,59.64099884,3263,IR,IR-30
OISS,large_airport,Shiraz Shahid Dastghaib International Airport,29.5392,52.589802,4927,IR,IR-14
OITT,large_airport,Tabriz International Airport,38.13389969,46.23500061,4459,IR,IR-01
OJAI,large_airport,Queen Alia International Airport,31.72260094,35.99319839,2395,JO,JO-AM
OKBK,large_airport,Kuwait International Airport,29.22660065,47.96889877,206,KW,KW-FA
OLBA,large_airport,Beirut Rafic Hariri International Airport,33.82089996,35.48839951,87,LB,LB-JL
OM-0003,large_airport,Duqm International Airport,19.501944,57.634167,364,OM,OM-WU
OM-0004,large_airport,Mussanah Airport,23.640556,57.4875,372,OM,OM-BA
OMAA,large_airport,Abu Dhabi International Airport,24.43300056,54.65110016,88,AE,AE-AZ
OMDB,large_airport,Dubai International Airport,25.25279999,55.36439896,62,AE,AE-DU
OMDW,large_airport,Al Maktoum International Airport,24.896356,55.161389,114,AE,AE-DU
OMSJ,large_airport,Sharjah International Airport,25.32859993,55.51720047,111,AE,AE-SH
OOMS,large_airport,Muscat International Airport,23.59329987,58.28440094,48,OM,OM-MA
OPIS,large_airport,Islamabad International Airport,33.549,72.82566,1761,PK,PK-PB
OPST,large_airport,Sialkot Airport,32.53555679,74.3638916,837,PK,PK-PB
ORBI,large_airport,Baghdad International Airport,33.26250076,44.23460007,114,IQ,IQ-BG
ORMM,large_airport,Basrah International Airport,30.54910088,47.66210175,11,IQ,IQ-BA
OSAP,large_airport,Aleppo International Airport,36.18069839,37.22439957,1276,SY,SY-HL
OSDI,large_airport,Damascus International Airport,33.41149902,36.5155983,2020,SY,SY-DI
OSLK,large_airport,Bassel Al-Assad International Airport,35.40110016,35.94869995,157,SY,SY-LA
OTHH,large_airport,Hamad International Airport,25.273056,51.608056,13,QA,QA-DA
PAFA,large_airport,Fairbanks International Airport,64.81510162,-147.8560028,439,US,US-AK
PANC,large_airport,Ted Stevens Anchorage International Airport,61.17440033,-149.9960022,152,US,US-AK
PGUM,large_airport,Antonio B. Won Pat International Airport,13.4834,144.796005,298,GU,GU-U-A
PH-0001,large_airport,Laguindingan Airport,8.612203,124.456496,190,PH,PH-MSR
PH-0073,large_airport,Cagayan North International Airport,18.182388,121.745853,148,PH,PH-CAG
PHNL,large_airport,Daniel K Inouye International Airport,21.32062,-157.924228,13,US,US-HI
RCBS,large_airport,Kinmen Airport,24.4279,118.359001,93,TW,TW-X-KM
RCKH,large_airport,Kaohsiung International Airport,22.577101,120.349998,31,TW,TW-KHH
RCTP,large_airport,Taiwan Taoyuan International Airport,25.0777,121.233002,106,TW,TW-TAO
RJAA,large_airport,Narita International Airport,35.764702,140.386002,141,JP,JP-12
RJBB,large_airport,Kansai International Airport,34.427299,135.244003,26,JP,JP-27
RJCC,large_airport,New Chitose Airport,42.77519989,141.6920013,82,JP,JP-01
RJFF,large_airport,Fukuoka Airport,33.58589935,130.451004,32,JP,JP-40
RJFK,large_airport,Kagoshima Airport,31.80340004,130.7189941,906,JP,JP-46
RJGG,large_airport,Chubu Centrair International Airport,34.85839844,136.8049927,15,JP,JP-23
rjns,large_airport,Mount Fuji Shizuoka Airport,34.796043,138.187752,433,JP,JP-22
RJOO,large_airport,Osaka International Airport,34.78549957,135.4380035,50,JP,JP-27
RJSS,large_airport,Sendai Airport,38.139702,140.917007,15,JP,JP-04
RJTT,large_airport,Tokyo Haneda International Airport,35.552299,139.779999,35,JP,JP-13
RJTY,large_airport,Yokota Air Base,35.74850082,139.3480072,463,JP,JP-13
RKJB,large_airport,Muan International Airport,34.991406,126.382814,35,KR,KR-46
RKJK,large_airport,Kunsan Air Base,35.90380096,126.6159973,29,KR,KR-45
RKPC,large_airport,Jeju International Airport,33.51129913,126.4929962,118,KR,KR-49
RKPK,large_airport,Gimhae International Airport,35.17950058,128.9380035,6,KR,KR-26
RKSI,large_airport,Incheon International Airport,37.46910095,126.4509964,23,KR,KR-28
RKSO,large_airport,Osan Air Base,37.090599,127.029999,38,KR,KR-41
RKSS,large_airport,Gimpo International Airport,37.5583,126.791,59,KR,KR-11
RKTU,large_airport,Cheongju International Airport/Cheongju Air Base (K-59/G-513),36.717008,127.498741,191,KR,KR-43
ROAH,large_airport,Naha Airport,26.19580078,127.6460037,12,JP,JP-47
RODN,large_airport,Kadena Air Base,26.351667,127.769444,143,JP,JP-47
RPLC,large_airport,Diosdado Macapagal International Airport,15.186,120.559998,484,PH,PH-PAM
RPLL,large_airport,Ninoy Aquino International Airport,14.5086,121.019997,75,PH,PH-00
RPMD,large_airport,Francisco Bangoy International Airport,7.12552,125.646004,96,PH,PH-DAS
RPVM,large_airport,Mactan Cebu International Airport,10.30749989,123.9789963,31,PH,PH-CEB
RU-0016,large_airport,Lipetsk Air Base,52.63499832,39.44499969,636,RU,RU-LIP
RU-0035,large_airport,Grozny North Airport,43.388302,45.698601,548,RU,RU-CE
RU-2244,large_airport,Ukrainka Air Base,51.169997,128.445007,771,RU,RU-AMU
RU-4464,large_airport,Olenya Air Base,68.15180206,33.46390152,702,RU,RU-MUR
SAEZ,large_airport,Ministro Pistarini International Airport,-34.8222,-58.5358,67,AR,AR-B
SBBE,large_airport,Val de Cans/JXXlio Cezar Ribeiro International Airport,-1.37925005,-48.47629929,54,BR,BR-PA
SBBR,large_airport,Presidente Juscelino Kubitschek International Airport,-15.869167,-47.920834,3497,BR,BR-DF
SBCF,large_airport,Tancredo Neves International Airport,-19.62444305,-43.9719429,2715,BR,BR-MG
SBCT,large_airport,Afonso Pena Airport,-25.5284996,-49.17580032,2988,BR,BR-PR
SBEG,large_airport,Eduardo Gomes International Airport,-3.03861,-60.049702,264,BR,BR-AM
SBFL,large_airport,HercXXlio Luz International Airport,-27.67027855,-48.55250168,16,BR,BR-SC
SBGL,large_airport,Rio GaleXXo XXX Tom Jobim International Airport,-22.80999947,-43.25055695,28,BR,BR-RJ
SBGR,large_airport,Guarulhos - Governador AndrXX Franco Montoro International Airport,-23.43555641,-46.47305679,2459,BR,BR-SP
SBSG,large_airport,Governador AluXXzio Alves International Airport,-5.768056,-35.376111,272,BR,BR-RN
SBSP,large_airport,Congonhas Airport,-23.62611008,-46.65638733,2631,BR,BR-SP
SBSV,large_airport,Deputado Luiz Eduardo MagalhXXes International Airport,-12.9086113,-38.32249832,64,BR,BR-BA
SCEL,large_airport,Comodoro Arturo Merino BenXXtez International Airport,-33.39300156,-70.78579712,1555,CL,CL-RM
SELT,large_airport,Cotopaxi International Airport,-0.906833,-78.615799,9205,EC,EC-X
SEQM,large_airport,Mariscal Sucre International Airport,-0.1291666667,-78.3575,7841,EC,EC-P
SKBO,large_airport,El Dorado International Airport,4.70159,-74.1469,8361,CO,CO-CUN
SLVR,large_airport,Viru Viru International Airport,-17.6448,-63.135399,1224,BO,BO-S
SPIM,large_airport,Jorge ChXXvez International Airport,-12.0219,-77.114305,113,PE,PE-LIM
SPZO,large_airport,Alejandro Velasco Astete International Airport,-13.53569984,-71.938797,10860,PE,PE-CUS
SUMU,large_airport,Carrasco International /General C L Berisso Airport,-34.838402,-56.0308,105,UY,UY-CA
SVBC,large_airport,General JosXX Antonio Anzoategui International Airport,10.111111,-64.692222,30,VE,VE-B
SVMI,large_airport,SimXXn BolXXvar International Airport,10.601194,-66.991222,234,VE,VE-X
TFFR,large_airport,Pointe-XX-Pitre Le Raizet,16.265301,-61.531799,36,GP,GP-U-A
TJSJ,large_airport,Luis Munoz Marin International Airport,18.43939972,-66.00180054,9,PR,PR-U-A
TN-0002,large_airport,Enfidha - Hammamet International Airport,36.075833,10.438611,21,TN,TN-51
TNCM,large_airport,Princess Juliana International Airport,18.04100037,-63.10889816,13,SX,SX-U-A
TR-0044,large_airport,XXukurova Airport,36.895545,35.069381,15,TR,TR-33
UAAA,large_airport,Almaty Airport,43.35210037,77.04049683,2234,KZ,KZ-ALM
UACC,large_airport,Astana International Airport,51.02220154,71.46690369,1165,KZ,KZ-AKM
UAFM,large_airport,Manas International Airport,43.06129837,74.4776001,2058,KG,KG-C
UAIT,large_airport,Hazrat Sultan International Airport,43.313126,68.549881,1,KZ,KZ-YUZ
UAKK,large_airport,Sary-Arka Airport,49.67079926,73.33439636,1765,KZ,KZ-KAR
UBBB,large_airport,Heydar Aliyev International Airport,40.46749878,50.04669952,10,AZ,AZ-BA
UDYZ,large_airport,Zvartnots International Airport,40.14730072,44.39590073,2838,AM,AM-ER
UGTB,large_airport,Tbilisi International Airport,41.6692009,44.95470047,1624,GE,GE-TB
UHHH,large_airport,Khabarovsk-Novy Airport,48.52799988,135.1880035,244,RU,RU-KHA
UHWW,large_airport,Vladivostok International Airport,43.396256,132.148155,59,RU,RU-PRI
UKBB,large_airport,Boryspil International Airport,50.34500122,30.8946991,427,UA,UA-32
UKFF,large_airport,Simferopol International Airport,45.0522,33.975101,639,RU,RU-U-A
UKHH,large_airport,Kharkiv International Airport,49.92480087,36.29000092,508,UA,UA-63
UKOO,large_airport,Odessa International Airport,46.42679977,30.67650032,172,UA,UA-51
ULLI,large_airport,Pulkovo Airport,59.8003006,30.26250076,78,RU,RU-SPE
UMMS,large_airport,Minsk National Airport,53.88249969,28.03070068,670,BY,BY-MI
UNKL,large_airport,Yemelyanovo Airport,56.172901,92.493301,942,RU,RU-KYA
UNNT,large_airport,Tolmachevo Airport,55.01259995,82.65070343,365,RU,RU-NVS
URRP,large_airport,Platov International Airport,47.493888,39.924722,213,RU,RU-ROS
URSS,large_airport,Sochi International Airport,43.449902,39.9566,89,RU,RU-KDA
USSS,large_airport,Koltsovo Airport,56.74309921,60.80270004,764,RU,RU-SVE
UTAA,large_airport,Ashgabat International Airport,37.986801,58.361,692,TM,TM-A
UTTT,large_airport,Tashkent International Airport,41.25790024,69.28119659,1417,UZ,UZ-TO
UUBW,large_airport,Zhukovsky International Airport,55.553299,38.150002,377,RU,RU-MOS
UUDD,large_airport,Domodedovo International Airport,55.40879822,37.90629959,588,RU,RU-MOS
UUEE,large_airport,Sheremetyevo International Airport,55.972599,37.4146,622,RU,RU-MOS
UUWW,large_airport,Vnukovo International Airport,55.59149933,37.26150131,685,RU,RU-MOS
UWKD,large_airport,Kazan International Airport,55.60620117,49.27870178,411,RU,RU-TA
UWKG,large_airport,Borisoglebskoye Airport,55.86669922,49.13330078,213,RU,RU-TA
UWSG,large_airport,Gagarin International Airport,51.712778,46.171111,103,RU,RU-SAR
UWUU,large_airport,Ufa International Airport,54.55749893,55.87440109,449,RU,RU-BA
UWWW,large_airport,Kurumoch International Airport,53.50490189,50.16429901,477,RU,RU-SAM
VABB,large_airport,Chhatrapati Shivaji International Airport,19.08869934,72.86789703,39,IN,IN-MM
VAGO,large_airport,Dabolim Airport,15.38080025,73.83139801,150,IN,IN-GA
VCBI,large_airport,Bandaranaike International Colombo Airport,7.180759907,79.88410187,30,LK,LK-1
VCRI,large_airport,Mattala Rajapaksa International Airport,6.284467,81.124128,157,LK,LK-3
VDPP,large_airport,Phnom Penh International Airport,11.54660034,104.8440018,40,KH,KH-8
VDSR,large_airport,Siem Reap International Airport,13.41069984,103.8130035,60,KH,KH-17
VECC,large_airport,Netaji Subhash Chandra Bose International Airport,22.65469933,88.44670105,16,IN,IN-WB
VGZR,large_airport,Hazrat Shahjalal International Airport,23.843347,90.397783,30,BD,BD-3
VHHH,large_airport,Hong Kong International Airport,22.308901,113.915001,28,HK,HK-U-A
VIAR,large_airport,Sri Guru Ram Dass Jee International Airport,31.70960045,74.79730225,756,IN,IN-PB
VIDP,large_airport,Indira Gandhi International Airport,28.5665,77.103104,777,IN,IN-DL
VMMC,large_airport,Macau International Airport,22.149599,113.592003,20,MO,MO-U-A
VNKT,large_airport,Tribhuvan International Airport,27.6966,85.3591,4390,NP,NP-BA
VOBL,large_airport,Kempegowda International Airport,13.1979,77.706299,3000,IN,IN-KA
VOCI,large_airport,Cochin International Airport,10.152,76.401901,30,IN,IN-KL
VOCL,large_airport,Calicut International Airport,11.13679981,75.95529938,342,IN,IN-KL
VOHS,large_airport,Rajiv Gandhi International Airport,17.231318,78.429855,2024,IN,IN-TG
VOMM,large_airport,Chennai International Airport,12.990005,80.169296,52,IN,IN-TN
VOTV,large_airport,Trivandrum International Airport,8.48211956,76.92009735,15,IN,IN-KL
VRMM,large_airport,MalXX International Airport,4.191830158,73.52909851,6,MV,MV-MLE
VTBD,large_airport,Don Mueang International Airport,13.91259956,100.6070023,9,TH,TH-10
VTBS,large_airport,Suvarnabhumi Airport,13.68109989,100.7470016,5,TH,TH-10
VTCC,large_airport,Chiang Mai International Airport,18.76679993,98.96260071,1036,TH,TH-50
VTSP,large_airport,Phuket International Airport,8.1132,98.316902,82,TH,TH-83
VVDN,large_airport,Da Nang International Airport,16.04389954,108.1989975,33,VN,VN-60
VVNB,large_airport,Noi Bai International Airport,21.221201,105.806999,39,VN,VN-64
VVTS,large_airport,Tan Son Nhat International Airport,10.81879997,106.6520004,33,VN,VN-23
VYMD,large_airport,Mandalay International Airport,21.70219994,95.97789764,300,MM,MM-04
VYYY,large_airport,Yangon International Airport,16.90730095,96.1332016,109,MM,MM-06
WAAA,large_airport,Hasanuddin International Airport,-5.061629772,119.5540009,47,ID,ID-SN
WADD,large_airport,Ngurah Rai (Bali) International Airport,-8.748169899,115.1669998,14,ID,ID-BA
WAJJ,large_airport,Sentani International Airport,-2.57695,140.516006,289,ID,ID-PA
WARR,large_airport,Juanda International Airport,-7.379829884,112.7870026,9,ID,ID-JI
WAXX,large_airport,Domine Eduard Osok Airport,-0.894,131.287,10,ID,ID-PB
WBSB,large_airport,Brunei International Airport,4.944200039,114.9280014,73,BN,BN-BM
WIII,large_airport,Soekarno-Hatta International Airport,-6.12556982,106.6559982,34,ID,ID-BT
WIMM,large_airport,Kualanamu International Airport,3.642222,98.885278,23,ID,ID-SU
WMKK,large_airport,Kuala Lumpur International Airport,2.745579958,101.7099991,69,MY,MY-14
WSSS,large_airport,Singapore Changi Airport,1.35019,103.994003,22,SG,SG-04
YBBN,large_airport,Brisbane International Airport,-27.38419914,153.1170044,13,AU,AU-QLD
YMML,large_airport,Melbourne International Airport,-37.673302,144.843002,434,AU,AU-VIC
YNT,large_airport,Yantai Penglai International Airport,37.657222,120.987222,154,CN,CN-37
YPAD,large_airport,Adelaide International Airport,-34.945,138.531006,20,AU,AU-SA
YPPH,large_airport,Perth International Airport,-31.94029999,115.9670029,67,AU,AU-WA
YSCB,large_airport,Canberra International Airport,-35.30690002,149.1950073,1886,AU,AU-ACT
YSSY,large_airport,Sydney Kingsford Smith International Airport,-33.94609833,151.177002,21,AU,AU-NSW
ZBAA,large_airport,Beijing Capital International Airport,40.08010101,116.5849991,116,CN,CN-11
ZBAD,large_airport,Beijing Daxing International Airport,39.509945,116.41092,98,CN,CN-13
ZBHH,large_airport,Baita International Airport,40.851398,111.823997,3556,CN,CN-15
ZBTJ,large_airport,Tianjin Binhai International Airport,39.12440109,117.3460007,10,CN,CN-12
ZBYN,large_airport,Taiyuan Wusu Airport,37.74689865,112.6279984,2575,CN,CN-14
ZGGG,large_airport,Guangzhou Baiyun International Airport,23.392401,113.299004,50,CN,CN-44
ZGHA,large_airport,Changsha Huanghua International Airport,28.18919945,113.2200012,217,CN,CN-43
ZGKL,large_airport,Guilin Liangjiang International Airport,25.2181,110.039001,570,CN,CN-45
ZGNN,large_airport,Nanning Wuxu Airport,22.608299,108.171997,421,CN,CN-45
ZGSZ,large_airport,Shenzhen Bao'an International Airport,22.639299,113.810997,13,CN,CN-44
ZHCC,large_airport,Zhengzhou Xinzheng International Airport,34.5196991,113.8410034,495,CN,CN-41
ZHHH,large_airport,Wuhan Tianhe International Airport,30.7838,114.208,113,CN,CN-42
ZJHK,large_airport,Haikou Meilan International Airport,19.9349,110.459,75,CN,CN-46
ZJSY,large_airport,Sanya Phoenix International Airport,18.3029,109.412003,92,CN,CN-46
ZLXY,large_airport,Xi'an Xianyang International Airport,34.447102,108.751999,1572,CN,CN-61
ZMCK,large_airport,Ulaanbaatar International Airport,47.646916,106.819833,4482,MN,MN-047
ZMUB,large_airport,Buyant-Ukhaa International Airport,47.843102,106.766998,4364,MN,MN-1
ZPPP,large_airport,Kunming Changshui International Airport,25.1019444,102.9291667,6903,CN,CN-53
ZSAM,large_airport,Xiamen Gaoqi International Airport,24.54400063,118.1279984,59,CN,CN-35
ZSFZ,large_airport,Fuzhou Changle International Airport,25.93510056,119.663002,46,CN,CN-35
ZSHC,large_airport,Hangzhou Xiaoshan International Airport,30.22949982,120.4339981,23,CN,CN-33
ZSJN,large_airport,Yaoqiang Airport,36.85720062,117.2160034,76,CN,CN-37
ZSNB,large_airport,Ningbo Lishe International Airport,29.82670021,121.461998,13,CN,CN-33
ZSNJ,large_airport,Nanjing Lukou Airport,31.74200058,118.8619995,49,CN,CN-32
ZSPD,large_airport,Shanghai Pudong International Airport,31.14340019,121.8050003,13,CN,CN-31
ZSSS,large_airport,Shanghai Hongqiao International Airport,31.19790077,121.3359985,10,CN,CN-31
ZUCK,large_airport,Chongqing Jiangbei International Airport,29.71920013,106.6419983,1365,CN,CN-50
ZUGY,large_airport,Longdongbao Airport,26.53849983,106.8010025,3736,CN,CN-52
ZUUU,large_airport,Chengdu Shuangliu International Airport,30.57850075,103.9469986,1625,CN,CN-51
ZWWW,large_airport,XXrXXmqi Diwopu International Airport,43.90710068,87.47419739,2125,CN,CN-65
ZYHB,large_airport,Taiping Airport,45.62340164,126.25,457,CN,CN-23
ZYTL,large_airport,Zhoushuizi Airport,38.96569824,121.5390015,107,CN,CN-21
ZYTX,large_airport,Taoxian Airport,41.63980103,123.4830017,198,CN,CN-21